Impfzentrum: {"resultList":[{"vaccinationCenterPk":915745288482899,"name":"Impfzentrum Hannover 1","streetName":"Messegelände","streetNumber":"25","zipcode":"30521","city":"Hannover","scheduleSaturday":true,"scheduleSunday":true,"vaccinationCenterType":0,"vaccineName":"BioNtech","vaccineType":"mRNA","interval1to2":42,"offsetStart2Appointment":0,"offsetEnd2Appointment":5,"distance":10,"outOfStock":true,"publicAppointment":true}],"succeeded":true}1621688105472
Frauenarzt: {"availabilities":[],"total":0,"reason":"no_availabilities","message":"Diese Termine stehen zu einem späteren Zeitpunkt wieder für eine Online-Buchung zur Verfügung. "}1621688105639
Impfzentrum: {"resultList":[{"vaccinationCenterPk":915745288482899,"name":"Impfzentrum Hannover 1","streetName":"Messegelände","streetNumber":"25","zipcode":"30521","city":"Hannover","scheduleSaturday":true,"scheduleSunday":true,"vaccinationCenterType":0,"vaccineName":"BioNtech","vaccineType":"mRNA","interval1to2":42,"offsetStart2Appointment":0,"offsetEnd2Appointment":5,"distance":10,"outOfStock":true,"publicAppointment":true}],"succeeded":true}1621688135598
Frauenarzt: {"availabilities":[],"total":0,"reason":"no_availabilities","message":"Diese Termine stehen zu einem späteren Zeitpunkt wieder für eine Online-Buchung zur Verfügung. "}1621688135677
Impfzentrum: {"resultList":[{"vaccinationCenterPk":915745288482899,"name":"Impfzentrum Hannover 1","streetName":"Messegelände","streetNumber":"25","zipcode":"30521","city":"Hannover","scheduleSaturday":true,"scheduleSunday":true,"vaccinationCenterType":0,"vaccineName":"BioNtech","vaccineType":"mRNA","interval1to2":42,"offsetStart2Appointment":0,"offsetEnd2Appointment":5,"distance":10,"outOfStock":true,"publicAppointment":true}],"succeeded":true}1621688165485
Frauenarzt: {"availabilities":[],"total":0,"reason":"no_availabilities","message":"Diese Termine stehen zu einem späteren Zeitpunkt wieder für eine Online-Buchung zur Verfügung. "}1621688165716
Impfzentrum: {"resultList":[{"vaccinationCenterPk":915745288482899,"name":"Impfzentrum Hannover 1","streetName":"Messegelände","streetNumber":"25","zipcode":"30521","city":"Hannover","scheduleSaturday":true,"scheduleSunday":true,"vaccinationCenterType":0,"vaccineName":"BioNtech","vaccineType":"mRNA","interval1to2":42,"offsetStart2Appointment":0,"offsetEnd2Appointment":5,"distance":10,"outOfStock":true,"publicAppointment":true}],"succeeded":true}1621688195459
Frauenarzt: {"availabilities":[],"total":0,"reason":"no_availabilities","message":"Diese Termine stehen zu einem späteren Zeitpunkt wieder für eine Online-Buchung zur Verfügung. "}1621688195559
Impfzentrum: {"resultList":[{"vaccinationCenterPk":915745288482899,"name":"Impfzentrum Hannover 1","streetName":"Messegelände","streetNumber":"25","zipcode":"30521","city":"Hannover","scheduleSaturday":true,"scheduleSunday":true,"vaccinationCenterType":0,"vaccineName":"BioNtech","vaccineType":"mRNA","interval1to2":42,"offsetStart2Appointment":0,"offsetEnd2Appointment":5,"distance":10,"outOfStock":true,"publicAppointment":true}],"succeeded":true}1621688225583
Frauenarzt: {"availabilities":[],"total":0,"reason":"no_availabilities","message":"Diese Termine stehen zu einem späteren Zeitpunkt wieder für eine Online-Buchung zur Verfügung. "}1621688225657
Impfzentrum: {"resultList":[{"vaccinationCenterPk":915745288482899,"name":"Impfzentrum Hannover 1","streetName":"Messegelände","streetNumber":"25","zipcode":"30521","city":"Hannover","scheduleSaturday":true,"scheduleSunday":true,"vaccinationCenterType":0,"vaccineName":"BioNtech","vaccineType":"mRNA","interval1to2":42,"offsetStart2Appointment":0,"offsetEnd2Appointment":5,"distance":10,"outOfStock":true,"publicAppointment":true}],"succeeded":true}1621688255470
Frauenarzt: {"availabilities":[],"total":0,"reason":"no_availabilities","message":"Diese Termine stehen zu einem späteren Zeitpunkt wieder für eine Online-Buchung zur Verfügung. "}1621688255775
Impfzentrum: {"resultList":[{"vaccinationCenterPk":915745288482899,"name":"Impfzentrum Hannover 1","streetName":"Messegelände","streetNumber":"25","zipcode":"30521","city":"Hannover","scheduleSaturday":true,"scheduleSunday":true,"vaccinationCenterType":0,"vaccineName":"BioNtech","vaccineType":"mRNA","interval1to2":42,"offsetStart2Appointment":0,"offsetEnd2Appointment":5,"distance":10,"outOfStock":true,"publicAppointment":true}],"succeeded":true}1621688285584
Frauenarzt: {"availabilities":[],"total":0,"reason":"no_availabilities","message":"Diese Termine stehen zu einem späteren Zeitpunkt wieder für eine Online-Buchung zur Verfügung. "}1621688285716
Impfzentrum: {"resultList":[{"vaccinationCenterPk":915745288482899,"name":"Impfzentrum Hannover 1","streetName":"Messegelände","streetNumber":"25","zipcode":"30521","city":"Hannover","scheduleSaturday":true,"scheduleSunday":true,"vaccinationCenterType":0,"vaccineName":"BioNtech","vaccineType":"mRNA","interval1to2":42,"offsetStart2Appointment":0,"offsetEnd2Appointment":5,"distance":10,"outOfStock":true,"publicAppointment":true}],"succeeded":true}1621688315479
Frauenarzt: {"availabilities":[],"total":0,"reason":"no_availabilities","message":"Diese Termine stehen zu einem späteren Zeitpunkt wieder für eine Online-Buchung zur Verfügung. "}1621688315549
Impfzentrum: {"resultList":[{"vaccinationCenterPk":915745288482899,"name":"Impfzentrum Hannover 1","streetName":"Messegelände","streetNumber":"25","zipcode":"30521","city":"Hannover","scheduleSaturday":true,"scheduleSunday":true,"vaccinationCenterType":0,"vaccineName":"BioNtech","vaccineType":"mRNA","interval1to2":42,"offsetStart2Appointment":0,"offsetEnd2Appointment":5,"distance":10,"outOfStock":true,"publicAppointment":true}],"succeeded":true}1621688345584
Frauenarzt: {"availabilities":[],"total":0,"reason":"no_availabilities","message":"Diese Termine stehen zu einem späteren Zeitpunkt wieder für eine Online-Buchung zur Verfügung. "}1621688345847
Impfzentrum: {"resultList":[{"vaccinationCenterPk":915745288482899,"name":"Impfzentrum Hannover 1","streetName":"Messegelände","streetNumber":"25","zipcode":"30521","city":"Hannover","scheduleSaturday":true,"scheduleSunday":true,"vaccinationCenterType":0,"vaccineName":"BioNtech","vaccineType":"mRNA","interval1to2":42,"offsetStart2Appointment":0,"offsetEnd2Appointment":5,"distance":10,"outOfStock":true,"publicAppointment":true}],"succeeded":true}1621688375468
Frauenarzt: {"availabilities":[],"total":0,"reason":"no_availabilities","message":"Diese Termine stehen zu einem späteren Zeitpunkt wieder für eine Online-Buchung zur Verfügung. "}1621688375530
Impfzentrum: {"resultList":[{"vaccinationCenterPk":915745288482899,"name":"Impfzentrum Hannover 1","streetName":"Messegelände","streetNumber":"25","zipcode":"30521","city":"Hannover","scheduleSaturday":true,"scheduleSunday":true,"vaccinationCenterType":0,"vaccineName":"BioNtech","vaccineType":"mRNA","interval1to2":42,"offsetStart2Appointment":0,"offsetEnd2Appointment":5,"distance":10,"outOfStock":true,"publicAppointment":true}],"succeeded":true}1621688405443
Frauenarzt: {"availabilities":[],"total":0,"reason":"no_availabilities","message":"Diese Termine stehen zu einem späteren Zeitpunkt wieder für eine Online-Buchung zur Verfügung. "}1621688405615
Impfzentrum: {"resultList":[{"vaccinationCenterPk":915745288482899,"name":"Impfzentrum Hannover 1","streetName":"Messegelände","streetNumber":"25","zipcode":"30521","city":"Hannover","scheduleSaturday":true,"scheduleSunday":true,"vaccinationCenterType":0,"vaccineName":"BioNtech","vaccineType":"mRNA","interval1to2":42,"offsetStart2Appointment":0,"offsetEnd2Appointment":5,"distance":10,"outOfStock":true,"publicAppointment":true}],"succeeded":true}1621688435502
Frauenarzt: {"availabilities":[],"total":0,"reason":"no_availabilities","message":"Diese Termine stehen zu einem späteren Zeitpunkt wieder für eine Online-Buchung zur Verfügung. "}1621688435775
Impfzentrum: {"resultList":[{"vaccinationCenterPk":915745288482899,"name":"Impfzentrum Hannover 1","streetName":"Messegelände","streetNumber":"25","zipcode":"30521","city":"Hannover","scheduleSaturday":true,"scheduleSunday":true,"vaccinationCenterType":0,"vaccineName":"BioNtech","vaccineType":"mRNA","interval1to2":42,"offsetStart2Appointment":0,"offsetEnd2Appointment":5,"distance":10,"outOfStock":true,"publicAppointment":true}],"succeeded":true}1621688465508
Frauenarzt: {"availabilities":[],"total":0,"reason":"no_availabilities","message":"Diese Termine stehen zu einem späteren Zeitpunkt wieder für eine Online-Buchung zur Verfügung. "}1621688465596
Impfzentrum: {"resultList":[{"vaccinationCenterPk":915745288482899,"name":"Impfzentrum Hannover 1","streetName":"Messegelände","streetNumber":"25","zipcode":"30521","city":"Hannover","scheduleSaturday":true,"scheduleSunday":true,"vaccinationCenterType":0,"vaccineName":"BioNtech","vaccineType":"mRNA","interval1to2":42,"offsetStart2Appointment":0,"offsetEnd2Appointment":5,"distance":10,"outOfStock":true,"publicAppointment":true}],"succeeded":true}1621688495514
Frauenarzt: {"availabilities":[],"total":0,"reason":"no_availabilities","message":"Diese Termine stehen zu einem späteren Zeitpunkt wieder für eine Online-Buchung zur Verfügung. "}1621688495639
Impfzentrum: {"resultList":[{"vaccinationCenterPk":915745288482899,"name":"Impfzentrum Hannover 1","streetName":"Messegelände","streetNumber":"25","zipcode":"30521","city":"Hannover","scheduleSaturday":true,"scheduleSunday":true,"vaccinationCenterType":0,"vaccineName":"BioNtech","vaccineType":"mRNA","interval1to2":42,"offsetStart2Appointment":0,"offsetEnd2Appointment":5,"distance":10,"outOfStock":true,"publicAppointment":true}],"succeeded":true}1621688525470
Frauenarzt: {"availabilities":[],"total":0,"reason":"no_availabilities","message":"Diese Termine stehen zu einem späteren Zeitpunkt wieder für eine Online-Buchung zur Verfügung. "}1621688525706
Impfzentrum: {"resultList":[{"vaccinationCenterPk":915745288482899,"name":"Impfzentrum Hannover 1","streetName":"Messegelände","streetNumber":"25","zipcode":"30521","city":"Hannover","scheduleSaturday":true,"scheduleSunday":true,"vaccinationCenterType":0,"vaccineName":"BioNtech","vaccineType":"mRNA","interval1to2":42,"offsetStart2Appointment":0,"offsetEnd2Appointment":5,"distance":10,"outOfStock":true,"publicAppointment":true}],"succeeded":true}1621688555486
Frauenarzt: {"availabilities":[],"total":0,"reason":"no_availabilities","message":"Diese Termine stehen zu einem späteren Zeitpunkt wieder für eine Online-Buchung zur Verfügung. "}1621688555590
Impfzentrum: {"resultList":[{"vaccinationCenterPk":915745288482899,"name":"Impfzentrum Hannover 1","streetName":"Messegelände","streetNumber":"25","zipcode":"30521","city":"Hannover","scheduleSaturday":true,"scheduleSunday":true,"vaccinationCenterType":0,"vaccineName":"BioNtech","vaccineType":"mRNA","interval1to2":42,"offsetStart2Appointment":0,"offsetEnd2Appointment":5,"distance":10,"outOfStock":true,"publicAppointment":true}],"succeeded":true}1621688585473
Frauenarzt: {"availabilities":[],"total":0,"reason":"no_availabilities","message":"Diese Termine stehen zu einem späteren Zeitpunkt wieder für eine Online-Buchung zur Verfügung. "}1621688585545
Impfzentrum: {"resultList":[{"vaccinationCenterPk":915745288482899,"name":"Impfzentrum Hannover 1","streetName":"Messegelände","streetNumber":"25","zipcode":"30521","city":"Hannover","scheduleSaturday":true,"scheduleSunday":true,"vaccinationCenterType":0,"vaccineName":"BioNtech","vaccineType":"mRNA","interval1to2":42,"offsetStart2Appointment":0,"offsetEnd2Appointment":5,"distance":10,"outOfStock":true,"publicAppointment":true}],"succeeded":true}1621688615794
Frauenarzt: {"availabilities":[],"total":0,"reason":"no_availabilities","message":"Diese Termine stehen zu einem späteren Zeitpunkt wieder für eine Online-Buchung zur Verfügung. "}1621688616133
Impfzentrum: {"resultList":[{"vaccinationCenterPk":915745288482899,"name":"Impfzentrum Hannover 1","streetName":"Messegelände","streetNumber":"25","zipcode":"30521","city":"Hannover","scheduleSaturday":true,"scheduleSunday":true,"vaccinationCenterType":0,"vaccineName":"BioNtech","vaccineType":"mRNA","interval1to2":42,"offsetStart2Appointment":0,"offsetEnd2Appointment":5,"distance":10,"outOfStock":true,"publicAppointment":true}],"succeeded":true}1621688645471
Frauenarzt: {"availabilities":[],"total":0,"reason":"no_availabilities","message":"Diese Termine stehen zu einem späteren Zeitpunkt wieder für eine Online-Buchung zur Verfügung. "}1621688645558
Impfzentrum: {"resultList":[{"vaccinationCenterPk":915745288482899,"name":"Impfzentrum Hannover 1","streetName":"Messegelände","streetNumber":"25","zipcode":"30521","city":"Hannover","scheduleSaturday":true,"scheduleSunday":true,"vaccinationCenterType":0,"vaccineName":"BioNtech","vaccineType":"mRNA","interval1to2":42,"offsetStart2Appointment":0,"offsetEnd2Appointment":5,"distance":10,"outOfStock":true,"publicAppointment":true}],"succeeded":true}1621688675523
Frauenarzt: {"availabilities":[],"total":0,"reason":"no_availabilities","message":"Diese Termine stehen zu einem späteren Zeitpunkt wieder für eine Online-Buchung zur Verfügung. "}1621688675646
Impfzentrum: {"resultList":[{"vaccinationCenterPk":915745288482899,"name":"Impfzentrum Hannover 1","streetName":"Messegelände","streetNumber":"25","zipcode":"30521","city":"Hannover","scheduleSaturday":true,"scheduleSunday":true,"vaccinationCenterType":0,"vaccineName":"BioNtech","vaccineType":"mRNA","interval1to2":42,"offsetStart2Appointment":0,"offsetEnd2Appointment":5,"distance":10,"outOfStock":true,"publicAppointment":true}],"succeeded":true}1621688705529
Frauenarzt: {"availabilities":[],"total":0,"reason":"no_availabilities","message":"Diese Termine stehen zu einem späteren Zeitpunkt wieder für eine Online-Buchung zur Verfügung. "}1621688705903
Impfzentrum: {"resultList":[{"vaccinationCenterPk":915745288482899,"name":"Impfzentrum Hannover 1","streetName":"Messegelände","streetNumber":"25","zipcode":"30521","city":"Hannover","scheduleSaturday":true,"scheduleSunday":true,"vaccinationCenterType":0,"vaccineName":"BioNtech","vaccineType":"mRNA","interval1to2":42,"offsetStart2Appointment":0,"offsetEnd2Appointment":5,"distance":10,"outOfStock":true,"publicAppointment":true}],"succeeded":true}1621688735522
Frauenarzt: {"availabilities":[],"total":0,"reason":"no_availabilities","message":"Diese Termine stehen zu einem späteren Zeitpunkt wieder für eine Online-Buchung zur Verfügung. "}1621688735665
Impfzentrum: {"resultList":[{"vaccinationCenterPk":915745288482899,"name":"Impfzentrum Hannover 1","streetName":"Messegelände","streetNumber":"25","zipcode":"30521","city":"Hannover","scheduleSaturday":true,"scheduleSunday":true,"vaccinationCenterType":0,"vaccineName":"BioNtech","vaccineType":"mRNA","interval1to2":42,"offsetStart2Appointment":0,"offsetEnd2Appointment":5,"distance":10,"outOfStock":true,"publicAppointment":true}],"succeeded":true}1621688765684
Frauenarzt: {"availabilities":[],"total":0,"reason":"no_availabilities","message":"Diese Termine stehen zu einem späteren Zeitpunkt wieder für eine Online-Buchung zur Verfügung. "}1621688765794
Impfzentrum: {"resultList":[{"vaccinationCenterPk":915745288482899,"name":"Impfzentrum Hannover 1","streetName":"Messegelände","streetNumber":"25","zipcode":"30521","city":"Hannover","scheduleSaturday":true,"scheduleSunday":true,"vaccinationCenterType":0,"vaccineName":"BioNtech","vaccineType":"mRNA","interval1to2":42,"offsetStart2Appointment":0,"offsetEnd2Appointment":5,"distance":10,"outOfStock":true,"publicAppointment":true}],"succeeded":true}1621688795504
Frauenarzt: {"availabilities":[],"total":0,"reason":"no_availabilities","message":"Diese Termine stehen zu einem späteren Zeitpunkt wieder für eine Online-Buchung zur Verfügung. "}1621688795879
Impfzentrum: {"resultList":[{"vaccinationCenterPk":915745288482899,"name":"Impfzentrum Hannover 1","streetName":"Messegelände","streetNumber":"25","zipcode":"30521","city":"Hannover","scheduleSaturday":true,"scheduleSunday":true,"vaccinationCenterType":0,"vaccineName":"BioNtech","vaccineType":"mRNA","interval1to2":42,"offsetStart2Appointment":0,"offsetEnd2Appointment":5,"distance":10,"outOfStock":true,"publicAppointment":true}],"succeeded":true}1621688825590
Frauenarzt: {"availabilities":[],"total":0,"reason":"no_availabilities","message":"Diese Termine stehen zu einem späteren Zeitpunkt wieder für eine Online-Buchung zur Verfügung. "}1621688825689
Impfzentrum: {"resultList":[{"vaccinationCenterPk":915745288482899,"name":"Impfzentrum Hannover 1","streetName":"Messegelände","streetNumber":"25","zipcode":"30521","city":"Hannover","scheduleSaturday":true,"scheduleSunday":true,"vaccinationCenterType":0,"vaccineName":"BioNtech","vaccineType":"mRNA","interval1to2":42,"offsetStart2Appointment":0,"offsetEnd2Appointment":5,"distance":10,"outOfStock":true,"publicAppointment":true}],"succeeded":true}1621688855510
Frauenarzt: {"availabilities":[],"total":0,"reason":"no_availabilities","message":"Diese Termine stehen zu einem späteren Zeitpunkt wieder für eine Online-Buchung zur Verfügung. "}1621688855642
Impfzentrum: {"resultList":[{"vaccinationCenterPk":915745288482899,"name":"Impfzentrum Hannover 1","streetName":"Messegelände","streetNumber":"25","zipcode":"30521","city":"Hannover","scheduleSaturday":true,"scheduleSunday":true,"vaccinationCenterType":0,"vaccineName":"BioNtech","vaccineType":"mRNA","interval1to2":42,"offsetStart2Appointment":0,"offsetEnd2Appointment":5,"distance":10,"outOfStock":true,"publicAppointment":true}],"succeeded":true}1621688885616
Frauenarzt: {"availabilities":[],"total":0,"reason":"no_availabilities","message":"Diese Termine stehen zu einem späteren Zeitpunkt wieder für eine Online-Buchung zur Verfügung. "}1621688885908
Impfzentrum: {"resultList":[{"vaccinationCenterPk":915745288482899,"name":"Impfzentrum Hannover 1","streetName":"Messegelände","streetNumber":"25","zipcode":"30521","city":"Hannover","scheduleSaturday":true,"scheduleSunday":true,"vaccinationCenterType":0,"vaccineName":"BioNtech","vaccineType":"mRNA","interval1to2":42,"offsetStart2Appointment":0,"offsetEnd2Appointment":5,"distance":10,"outOfStock":true,"publicAppointment":true}],"succeeded":true}1621688915503
Frauenarzt: {"availabilities":[],"total":0,"reason":"no_availabilities","message":"Diese Termine stehen zu einem späteren Zeitpunkt wieder für eine Online-Buchung zur Verfügung. "}1621688915568
Impfzentrum: {"resultList":[{"vaccinationCenterPk":915745288482899,"name":"Impfzentrum Hannover 1","streetName":"Messegelände","streetNumber":"25","zipcode":"30521","city":"Hannover","scheduleSaturday":true,"scheduleSunday":true,"vaccinationCenterType":0,"vaccineName":"BioNtech","vaccineType":"mRNA","interval1to2":42,"offsetStart2Appointment":0,"offsetEnd2Appointment":5,"distance":10,"outOfStock":true,"publicAppointment":true}],"succeeded":true}1621688945492
Frauenarzt: {"availabilities":[],"total":0,"reason":"no_availabilities","message":"Diese Termine stehen zu einem späteren Zeitpunkt wieder für eine Online-Buchung zur Verfügung. "}1621688945584
Impfzentrum: {"resultList":[{"vaccinationCenterPk":915745288482899,"name":"Impfzentrum Hannover 1","streetName":"Messegelände","streetNumber":"25","zipcode":"30521","city":"Hannover","scheduleSaturday":true,"scheduleSunday":true,"vaccinationCenterType":0,"vaccineName":"BioNtech","vaccineType":"mRNA","interval1to2":42,"offsetStart2Appointment":0,"offsetEnd2Appointment":5,"distance":10,"outOfStock":true,"publicAppointment":true}],"succeeded":true}1621688975609
Frauenarzt: {"availabilities":[],"total":0,"reason":"no_availabilities","message":"Diese Termine stehen zu einem späteren Zeitpunkt wieder für eine Online-Buchung zur Verfügung. "}1621688976017
Impfzentrum: {"resultList":[{"vaccinationCenterPk":915745288482899,"name":"Impfzentrum Hannover 1","streetName":"Messegelände","streetNumber":"25","zipcode":"30521","city":"Hannover","scheduleSaturday":true,"scheduleSunday":true,"vaccinationCenterType":0,"vaccineName":"BioNtech","vaccineType":"mRNA","interval1to2":42,"offsetStart2Appointment":0,"offsetEnd2Appointment":5,"distance":10,"outOfStock":true,"publicAppointment":true}],"succeeded":true}1621689005495
Frauenarzt: {"availabilities":[],"total":0,"reason":"no_availabilities","message":"Diese Termine stehen zu einem späteren Zeitpunkt wieder für eine Online-Buchung zur Verfügung. "}1621689005573
Impfzentrum: {"resultList":[{"vaccinationCenterPk":915745288482899,"name":"Impfzentrum Hannover 1","streetName":"Messegelände","streetNumber":"25","zipcode":"30521","city":"Hannover","scheduleSaturday":true,"scheduleSunday":true,"vaccinationCenterType":0,"vaccineName":"BioNtech","vaccineType":"mRNA","interval1to2":42,"offsetStart2Appointment":0,"offsetEnd2Appointment":5,"distance":10,"outOfStock":true,"publicAppointment":true}],"succeeded":true}1621689035606
Frauenarzt: {"availabilities":[],"total":0,"reason":"no_availabilities","message":"Diese Termine stehen zu einem späteren Zeitpunkt wieder für eine Online-Buchung zur Verfügung. "}1621689035666
Impfzentrum: {"resultList":[{"vaccinationCenterPk":915745288482899,"name":"Impfzentrum Hannover 1","streetName":"Messegelände","streetNumber":"25","zipcode":"30521","city":"Hannover","scheduleSaturday":true,"scheduleSunday":true,"vaccinationCenterType":0,"vaccineName":"BioNtech","vaccineType":"mRNA","interval1to2":42,"offsetStart2Appointment":0,"offsetEnd2Appointment":5,"distance":10,"outOfStock":true,"publicAppointment":true}],"succeeded":true}1621689065527
Frauenarzt: {"availabilities":[],"total":0,"reason":"no_availabilities","message":"Diese Termine stehen zu einem späteren Zeitpunkt wieder für eine Online-Buchung zur Verfügung. "}1621689065773
Impfzentrum: {"resultList":[{"vaccinationCenterPk":915745288482899,"name":"Impfzentrum Hannover 1","streetName":"Messegelände","streetNumber":"25","zipcode":"30521","city":"Hannover","scheduleSaturday":true,"scheduleSunday":true,"vaccinationCenterType":0,"vaccineName":"BioNtech","vaccineType":"mRNA","interval1to2":42,"offsetStart2Appointment":0,"offsetEnd2Appointment":5,"distance":10,"outOfStock":true,"publicAppointment":true}],"succeeded":true}1621689095529
Frauenarzt: {"availabilities":[],"total":0,"reason":"no_availabilities","message":"Diese Termine stehen zu einem späteren Zeitpunkt wieder für eine Online-Buchung zur Verfügung. "}1621689095591
Impfzentrum: {"resultList":[{"vaccinationCenterPk":915745288482899,"name":"Impfzentrum Hannover 1","streetName":"Messegelände","streetNumber":"25","zipcode":"30521","city":"Hannover","scheduleSaturday":true,"scheduleSunday":true,"vaccinationCenterType":0,"vaccineName":"BioNtech","vaccineType":"mRNA","interval1to2":42,"offsetStart2Appointment":0,"offsetEnd2Appointment":5,"distance":10,"outOfStock":true,"publicAppointment":true}],"succeeded":true}1621689125616
Frauenarzt: {"availabilities":[],"total":0,"reason":"no_availabilities","message":"Diese Termine stehen zu einem späteren Zeitpunkt wieder für eine Online-Buchung zur Verfügung. "}1621689125789
Impfzentrum: {"resultList":[{"vaccinationCenterPk":915745288482899,"name":"Impfzentrum Hannover 1","streetName":"Messegelände","streetNumber":"25","zipcode":"30521","city":"Hannover","scheduleSaturday":true,"scheduleSunday":true,"vaccinationCenterType":0,"vaccineName":"BioNtech","vaccineType":"mRNA","interval1to2":42,"offsetStart2Appointment":0,"offsetEnd2Appointment":5,"distance":10,"outOfStock":true,"publicAppointment":true}],"succeeded":true}1621689155826
Frauenarzt: {"availabilities":[],"total":0,"reason":"no_availabilities","message":"Diese Termine stehen zu einem späteren Zeitpunkt wieder für eine Online-Buchung zur Verfügung. "}1621689156127
Impfzentrum: {"resultList":[{"vaccinationCenterPk":915745288482899,"name":"Impfzentrum Hannover 1","streetName":"Messegelände","streetNumber":"25","zipcode":"30521","city":"Hannover","scheduleSaturday":true,"scheduleSunday":true,"vaccinationCenterType":0,"vaccineName":"BioNtech","vaccineType":"mRNA","interval1to2":42,"offsetStart2Appointment":0,"offsetEnd2Appointment":5,"distance":10,"outOfStock":true,"publicAppointment":true}],"succeeded":true}1621689185627
Frauenarzt: {"availabilities":[],"total":0,"reason":"no_availabilities","message":"Diese Termine stehen zu einem späteren Zeitpunkt wieder für eine Online-Buchung zur Verfügung. "}1621689185693
Impfzentrum: {"resultList":[{"vaccinationCenterPk":915745288482899,"name":"Impfzentrum Hannover 1","streetName":"Messegelände","streetNumber":"25","zipcode":"30521","city":"Hannover","scheduleSaturday":true,"scheduleSunday":true,"vaccinationCenterType":0,"vaccineName":"BioNtech","vaccineType":"mRNA","interval1to2":42,"offsetStart2Appointment":0,"offsetEnd2Appointment":5,"distance":10,"outOfStock":true,"publicAppointment":true}],"succeeded":true}1621689215620
Frauenarzt: {"availabilities":[],"total":0,"reason":"no_availabilities","message":"Diese Termine stehen zu einem späteren Zeitpunkt wieder für eine Online-Buchung zur Verfügung. "}1621689215691
Impfzentrum: {"resultList":[{"vaccinationCenterPk":915745288482899,"name":"Impfzentrum Hannover 1","streetName":"Messegelände","streetNumber":"25","zipcode":"30521","city":"Hannover","scheduleSaturday":true,"scheduleSunday":true,"vaccinationCenterType":0,"vaccineName":"BioNtech","vaccineType":"mRNA","interval1to2":42,"offsetStart2Appointment":0,"offsetEnd2Appointment":5,"distance":10,"outOfStock":true,"publicAppointment":true}],"succeeded":true}1621689245608
Frauenarzt: {"availabilities":[],"total":0,"reason":"no_availabilities","message":"Diese Termine stehen zu einem späteren Zeitpunkt wieder für eine Online-Buchung zur Verfügung. "}1621689245876
Impfzentrum: {"resultList":[{"vaccinationCenterPk":915745288482899,"name":"Impfzentrum Hannover 1","streetName":"Messegelände","streetNumber":"25","zipcode":"30521","city":"Hannover","scheduleSaturday":true,"scheduleSunday":true,"vaccinationCenterType":0,"vaccineName":"BioNtech","vaccineType":"mRNA","interval1to2":42,"offsetStart2Appointment":0,"offsetEnd2Appointment":5,"distance":10,"outOfStock":true,"publicAppointment":true}],"succeeded":true}1621689275615
Frauenarzt: {"availabilities":[],"total":0,"reason":"no_availabilities","message":"Diese Termine stehen zu einem späteren Zeitpunkt wieder für eine Online-Buchung zur Verfügung. "}1621689275724
Impfzentrum: {"resultList":[{"vaccinationCenterPk":915745288482899,"name":"Impfzentrum Hannover 1","streetName":"Messegelände","streetNumber":"25","zipcode":"30521","city":"Hannover","scheduleSaturday":true,"scheduleSunday":true,"vaccinationCenterType":0,"vaccineName":"BioNtech","vaccineType":"mRNA","interval1to2":42,"offsetStart2Appointment":0,"offsetEnd2Appointment":5,"distance":10,"outOfStock":true,"publicAppointment":true}],"succeeded":true}1621689305625
Frauenarzt: {"availabilities":[],"total":0,"reason":"no_availabilities","message":"Diese Termine stehen zu einem späteren Zeitpunkt wieder für eine Online-Buchung zur Verfügung. "}1621689305709
Impfzentrum: {"resultList":[{"vaccinationCenterPk":915745288482899,"name":"Impfzentrum Hannover 1","streetName":"Messegelände","streetNumber":"25","zipcode":"30521","city":"Hannover","scheduleSaturday":true,"scheduleSunday":true,"vaccinationCenterType":0,"vaccineName":"BioNtech","vaccineType":"mRNA","interval1to2":42,"offsetStart2Appointment":0,"offsetEnd2Appointment":5,"distance":10,"outOfStock":true,"publicAppointment":true}],"succeeded":true}1621689335635
Frauenarzt: {"availabilities":[],"total":0,"reason":"no_availabilities","message":"Diese Termine stehen zu einem späteren Zeitpunkt wieder für eine Online-Buchung zur Verfügung. "}1621689335963
Impfzentrum: {"resultList":[{"vaccinationCenterPk":915745288482899,"name":"Impfzentrum Hannover 1","streetName":"Messegelände","streetNumber":"25","zipcode":"30521","city":"Hannover","scheduleSaturday":true,"scheduleSunday":true,"vaccinationCenterType":0,"vaccineName":"BioNtech","vaccineType":"mRNA","interval1to2":42,"offsetStart2Appointment":0,"offsetEnd2Appointment":5,"distance":10,"outOfStock":true,"publicAppointment":true}],"succeeded":true}1621689365639
Frauenarzt: {"availabilities":[],"total":0,"reason":"no_availabilities","message":"Diese Termine stehen zu einem späteren Zeitpunkt wieder für eine Online-Buchung zur Verfügung. "}1621689365718
Impfzentrum: {"resultList":[{"vaccinationCenterPk":915745288482899,"name":"Impfzentrum Hannover 1","streetName":"Messegelände","streetNumber":"25","zipcode":"30521","city":"Hannover","scheduleSaturday":true,"scheduleSunday":true,"vaccinationCenterType":0,"vaccineName":"BioNtech","vaccineType":"mRNA","interval1to2":42,"offsetStart2Appointment":0,"offsetEnd2Appointment":5,"distance":10,"outOfStock":true,"publicAppointment":true}],"succeeded":true}1621689395617
Frauenarzt: {"availabilities":[],"total":0,"reason":"no_availabilities","message":"Diese Termine stehen zu einem späteren Zeitpunkt wieder für eine Online-Buchung zur Verfügung. "}1621689395734
Impfzentrum: {"resultList":[{"vaccinationCenterPk":915745288482899,"name":"Impfzentrum Hannover 1","streetName":"Messegelände","streetNumber":"25","zipcode":"30521","city":"Hannover","scheduleSaturday":true,"scheduleSunday":true,"vaccinationCenterType":0,"vaccineName":"BioNtech","vaccineType":"mRNA","interval1to2":42,"offsetStart2Appointment":0,"offsetEnd2Appointment":5,"distance":10,"outOfStock":true,"publicAppointment":true}],"succeeded":true}1621689425674
Frauenarzt: {"availabilities":[],"total":0,"reason":"no_availabilities","message":"Diese Termine stehen zu einem späteren Zeitpunkt wieder für eine Online-Buchung zur Verfügung. "}1621689426039
Impfzentrum: {"resultList":[{"vaccinationCenterPk":915745288482899,"name":"Impfzentrum Hannover 1","streetName":"Messegelände","streetNumber":"25","zipcode":"30521","city":"Hannover","scheduleSaturday":true,"scheduleSunday":true,"vaccinationCenterType":0,"vaccineName":"BioNtech","vaccineType":"mRNA","interval1to2":42,"offsetStart2Appointment":0,"offsetEnd2Appointment":5,"distance":10,"outOfStock":true,"publicAppointment":true}],"succeeded":true}1621689455656
Frauenarzt: {"availabilities":[],"total":0,"reason":"no_availabilities","message":"Diese Termine stehen zu einem späteren Zeitpunkt wieder für eine Online-Buchung zur Verfügung. "}1621689455745
Impfzentrum: {"resultList":[{"vaccinationCenterPk":915745288482899,"name":"Impfzentrum Hannover 1","streetName":"Messegelände","streetNumber":"25","zipcode":"30521","city":"Hannover","scheduleSaturday":true,"scheduleSunday":true,"vaccinationCenterType":0,"vaccineName":"BioNtech","vaccineType":"mRNA","interval1to2":42,"offsetStart2Appointment":0,"offsetEnd2Appointment":5,"distance":10,"outOfStock":true,"publicAppointment":true}],"succeeded":true}1621689485784
Frauenarzt: {"availabilities":[],"total":0,"reason":"no_availabilities","message":"Diese Termine stehen zu einem späteren Zeitpunkt wieder für eine Online-Buchung zur Verfügung. "}1621689485915
Impfzentrum: {"resultList":[{"vaccinationCenterPk":915745288482899,"name":"Impfzentrum Hannover 1","streetName":"Messegelände","streetNumber":"25","zipcode":"30521","city":"Hannover","scheduleSaturday":true,"scheduleSunday":true,"vaccinationCenterType":0,"vaccineName":"BioNtech","vaccineType":"mRNA","interval1to2":42,"offsetStart2Appointment":0,"offsetEnd2Appointment":5,"distance":10,"outOfStock":true,"publicAppointment":true}],"succeeded":true}1621689515650
Frauenarzt: {"availabilities":[],"total":0,"reason":"no_availabilities","message":"Diese Termine stehen zu einem späteren Zeitpunkt wieder für eine Online-Buchung zur Verfügung. "}1621689515943
Impfzentrum: {"resultList":[{"vaccinationCenterPk":915745288482899,"name":"Impfzentrum Hannover 1","streetName":"Messegelände","streetNumber":"25","zipcode":"30521","city":"Hannover","scheduleSaturday":true,"scheduleSunday":true,"vaccinationCenterType":0,"vaccineName":"BioNtech","vaccineType":"mRNA","interval1to2":42,"offsetStart2Appointment":0,"offsetEnd2Appointment":5,"distance":10,"outOfStock":true,"publicAppointment":true}],"succeeded":true}1621689545731
Frauenarzt: {"availabilities":[],"total":0,"reason":"no_availabilities","message":"Diese Termine stehen zu einem späteren Zeitpunkt wieder für eine Online-Buchung zur Verfügung. "}1621689545815
Impfzentrum: {"resultList":[{"vaccinationCenterPk":915745288482899,"name":"Impfzentrum Hannover 1","streetName":"Messegelände","streetNumber":"25","zipcode":"30521","city":"Hannover","scheduleSaturday":true,"scheduleSunday":true,"vaccinationCenterType":0,"vaccineName":"BioNtech","vaccineType":"mRNA","interval1to2":42,"offsetStart2Appointment":0,"offsetEnd2Appointment":5,"distance":10,"outOfStock":true,"publicAppointment":true}],"succeeded":true}1621689575766
Frauenarzt: {"availabilities":[],"total":0,"reason":"no_availabilities","message":"Diese Termine stehen zu einem späteren Zeitpunkt wieder für eine Online-Buchung zur Verfügung. "}1621689575844
Impfzentrum: {"resultList":[{"vaccinationCenterPk":915745288482899,"name":"Impfzentrum Hannover 1","streetName":"Messegelände","streetNumber":"25","zipcode":"30521","city":"Hannover","scheduleSaturday":true,"scheduleSunday":true,"vaccinationCenterType":0,"vaccineName":"BioNtech","vaccineType":"mRNA","interval1to2":42,"offsetStart2Appointment":0,"offsetEnd2Appointment":5,"distance":10,"outOfStock":true,"publicAppointment":true}],"succeeded":true}1621689605663
Frauenarzt: {"availabilities":[],"total":0,"reason":"no_availabilities","message":"Diese Termine stehen zu einem späteren Zeitpunkt wieder für eine Online-Buchung zur Verfügung. "}1621689605905
Impfzentrum: {"resultList":[{"vaccinationCenterPk":915745288482899,"name":"Impfzentrum Hannover 1","streetName":"Messegelände","streetNumber":"25","zipcode":"30521","city":"Hannover","scheduleSaturday":true,"scheduleSunday":true,"vaccinationCenterType":0,"vaccineName":"BioNtech","vaccineType":"mRNA","interval1to2":42,"offsetStart2Appointment":0,"offsetEnd2Appointment":5,"distance":10,"outOfStock":true,"publicAppointment":true}],"succeeded":true}1621689635745
Frauenarzt: {"availabilities":[],"total":0,"reason":"no_availabilities","message":"Diese Termine stehen zu einem späteren Zeitpunkt wieder für eine Online-Buchung zur Verfügung. "}1621689635846
Impfzentrum: {"resultList":[{"vaccinationCenterPk":915745288482899,"name":"Impfzentrum Hannover 1","streetName":"Messegelände","streetNumber":"25","zipcode":"30521","city":"Hannover","scheduleSaturday":true,"scheduleSunday":true,"vaccinationCenterType":0,"vaccineName":"BioNtech","vaccineType":"mRNA","interval1to2":42,"offsetStart2Appointment":0,"offsetEnd2Appointment":5,"distance":10,"outOfStock":true,"publicAppointment":true}],"succeeded":true}1621689665624
Frauenarzt: {"availabilities":[],"total":0,"reason":"no_availabilities","message":"Diese Termine stehen zu einem späteren Zeitpunkt wieder für eine Online-Buchung zur Verfügung. "}1621689665696
Impfzentrum: {"resultList":[{"vaccinationCenterPk":915745288482899,"name":"Impfzentrum Hannover 1","streetName":"Messegelände","streetNumber":"25","zipcode":"30521","city":"Hannover","scheduleSaturday":true,"scheduleSunday":true,"vaccinationCenterType":0,"vaccineName":"BioNtech","vaccineType":"mRNA","interval1to2":42,"offsetStart2Appointment":0,"offsetEnd2Appointment":5,"distance":10,"outOfStock":true,"publicAppointment":true}],"succeeded":true}1621689695644
Frauenarzt: {"availabilities":[],"total":0,"reason":"no_availabilities","message":"Diese Termine stehen zu einem späteren Zeitpunkt wieder für eine Online-Buchung zur Verfügung. "}1621689696053
Impfzentrum: {"resultList":[{"vaccinationCenterPk":915745288482899,"name":"Impfzentrum Hannover 1","streetName":"Messegelände","streetNumber":"25","zipcode":"30521","city":"Hannover","scheduleSaturday":true,"scheduleSunday":true,"vaccinationCenterType":0,"vaccineName":"BioNtech","vaccineType":"mRNA","interval1to2":42,"offsetStart2Appointment":0,"offsetEnd2Appointment":5,"distance":10,"outOfStock":true,"publicAppointment":true}],"succeeded":true}1621689725808
Frauenarzt: {"availabilities":[],"total":0,"reason":"no_availabilities","message":"Diese Termine stehen zu einem späteren Zeitpunkt wieder für eine Online-Buchung zur Verfügung. "}1621689725919
Impfzentrum: {"resultList":[{"vaccinationCenterPk":915745288482899,"name":"Impfzentrum Hannover 1","streetName":"Messegelände","streetNumber":"25","zipcode":"30521","city":"Hannover","scheduleSaturday":true,"scheduleSunday":true,"vaccinationCenterType":0,"vaccineName":"BioNtech","vaccineType":"mRNA","interval1to2":42,"offsetStart2Appointment":0,"offsetEnd2Appointment":5,"distance":10,"outOfStock":true,"publicAppointment":true}],"succeeded":true}1621689755712
Frauenarzt: {"availabilities":[],"total":0,"reason":"no_availabilities","message":"Diese Termine stehen zu einem späteren Zeitpunkt wieder für eine Online-Buchung zur Verfügung. "}1621689755779
Impfzentrum: {"resultList":[{"vaccinationCenterPk":915745288482899,"name":"Impfzentrum Hannover 1","streetName":"Messegelände","streetNumber":"25","zipcode":"30521","city":"Hannover","scheduleSaturday":true,"scheduleSunday":true,"vaccinationCenterType":0,"vaccineName":"BioNtech","vaccineType":"mRNA","interval1to2":42,"offsetStart2Appointment":0,"offsetEnd2Appointment":5,"distance":10,"outOfStock":true,"publicAppointment":true}],"succeeded":true}1621689785654
Frauenarzt: {"availabilities":[],"total":0,"reason":"no_availabilities","message":"Diese Termine stehen zu einem späteren Zeitpunkt wieder für eine Online-Buchung zur Verfügung. "}1621689786059
Impfzentrum: {"resultList":[{"vaccinationCenterPk":915745288482899,"name":"Impfzentrum Hannover 1","streetName":"Messegelände","streetNumber":"25","zipcode":"30521","city":"Hannover","scheduleSaturday":true,"scheduleSunday":true,"vaccinationCenterType":0,"vaccineName":"BioNtech","vaccineType":"mRNA","interval1to2":42,"offsetStart2Appointment":0,"offsetEnd2Appointment":5,"distance":10,"outOfStock":true,"publicAppointment":true}],"succeeded":true}1621689815684
Frauenarzt: {"availabilities":[],"total":0,"reason":"no_availabilities","message":"Diese Termine stehen zu einem späteren Zeitpunkt wieder für eine Online-Buchung zur Verfügung. "}1621689815760
Impfzentrum: {"resultList":[{"vaccinationCenterPk":915745288482899,"name":"Impfzentrum Hannover 1","streetName":"Messegelände","streetNumber":"25","zipcode":"30521","city":"Hannover","scheduleSaturday":true,"scheduleSunday":true,"vaccinationCenterType":0,"vaccineName":"BioNtech","vaccineType":"mRNA","interval1to2":42,"offsetStart2Appointment":0,"offsetEnd2Appointment":5,"distance":10,"outOfStock":true,"publicAppointment":true}],"succeeded":true}1621689845789
Frauenarzt: {"availabilities":[],"total":0,"reason":"no_availabilities","message":"Diese Termine stehen zu einem späteren Zeitpunkt wieder für eine Online-Buchung zur Verfügung. "}1621689845863
Impfzentrum: {"resultList":[{"vaccinationCenterPk":915745288482899,"name":"Impfzentrum Hannover 1","streetName":"Messegelände","streetNumber":"25","zipcode":"30521","city":"Hannover","scheduleSaturday":true,"scheduleSunday":true,"vaccinationCenterType":0,"vaccineName":"BioNtech","vaccineType":"mRNA","interval1to2":42,"offsetStart2Appointment":0,"offsetEnd2Appointment":5,"distance":10,"outOfStock":true,"publicAppointment":true}],"succeeded":true}1621689875680
Frauenarzt: {"availabilities":[],"total":0,"reason":"no_availabilities","message":"Diese Termine stehen zu einem späteren Zeitpunkt wieder für eine Online-Buchung zur Verfügung. "}1621689875909
Impfzentrum: {"resultList":[{"vaccinationCenterPk":915745288482899,"name":"Impfzentrum Hannover 1","streetName":"Messegelände","streetNumber":"25","zipcode":"30521","city":"Hannover","scheduleSaturday":true,"scheduleSunday":true,"vaccinationCenterType":0,"vaccineName":"BioNtech","vaccineType":"mRNA","interval1to2":42,"offsetStart2Appointment":0,"offsetEnd2Appointment":5,"distance":10,"outOfStock":true,"publicAppointment":true}],"succeeded":true}1621691643109
Frauenarzt: {"availabilities":[],"total":0,"reason":"no_availabilities","message":"Diese Termine stehen zu einem späteren Zeitpunkt wieder für eine Online-Buchung zur Verfügung. "}1621691643451
